CCSDS_OMM_VERS = 2.0
CREATION_DATE  = 
ORIGINATOR     = 

OBJECT_NAME    = STARLINK-37068
OBJECT_ID      = 2026-042S
CENTER_NAME    = EARTH
REF_FRAME      = TEME
TIME_SYSTEM    = UTC
MEAN_ELEMENT_THEORY = SGP/SGP4

EPOCH          = 2026-03-16T06:00:02.999808
MEAN_MOTION    = 15.84125466
ECCENTRICITY   = .00009177
INCLINATION    = 53.1594
RA_OF_ASC_NODE = 161.7702
ARG_OF_PERICENTER = 85.6523
MEAN_ANOMALY   = 217.6850

EPHEMERIS_TYPE = 0
CLASSIFICATION_TYPE = U
NORAD_CAT_ID   = 68085
ELEMENT_SET_NO = 999
REV_AT_EPOCH   = 310
BSTAR          = -.78504406E-2
MEAN_MOTION_DOT = -.1583164E-1
MEAN_MOTION_DDOT = 0

CCSDS_OMM_VERS = 2.0
CREATION_DATE  = 
ORIGINATOR     = 

OBJECT_NAME    = STARLINK-37067
OBJECT_ID      = 2026-042T
CENTER_NAME    = EARTH
REF_FRAME      = TEME
TIME_SYSTEM    = UTC
MEAN_ELEMENT_THEORY = SGP/SGP4

EPOCH          = 2026-03-16T06:00:02.999808
MEAN_MOTION    = 15.84188814
ECCENTRICITY   = .00009236
INCLINATION    = 53.1593
RA_OF_ASC_NODE = 161.7619
ARG_OF_PERICENTER = 90.6427
MEAN_ANOMALY   = 216.7868

EPHEMERIS_TYPE = 0
CLASSIFICATION_TYPE = U
NORAD_CAT_ID   = 68086
ELEMENT_SET_NO = 999
REV_AT_EPOCH   = 310
BSTAR          = -.78896676E-2
MEAN_MOTION_DOT = -.1594338E-1
MEAN_MOTION_DDOT = 0

CCSDS_OMM_VERS = 2.0
CREATION_DATE  = 
ORIGINATOR     = 

OBJECT_NAME    = STARLINK-37062
OBJECT_ID      = 2026-042U
CENTER_NAME    = EARTH
REF_FRAME      = TEME
TIME_SYSTEM    = UTC
MEAN_ELEMENT_THEORY = SGP/SGP4

EPOCH          = 2026-03-16T06:00:02.999808
MEAN_MOTION    = 15.84286994
ECCENTRICITY   = .00011035
INCLINATION    = 53.1595
RA_OF_ASC_NODE = 161.7537
ARG_OF_PERICENTER = 94.2473
MEAN_ANOMALY   = 217.1157

EPHEMERIS_TYPE = 0
CLASSIFICATION_TYPE = U
NORAD_CAT_ID   = 68087
ELEMENT_SET_NO = 999
REV_AT_EPOCH   = 310
BSTAR          = -.78532887E-2
MEAN_MOTION_DOT = -.1594655E-1
MEAN_MOTION_DDOT = 0

CCSDS_OMM_VERS = 2.0
CREATION_DATE  = 
ORIGINATOR     = 

OBJECT_NAME    = STARLINK-37059
OBJECT_ID      = 2026-042V
CENTER_NAME    = EARTH
REF_FRAME      = TEME
TIME_SYSTEM    = UTC
MEAN_ELEMENT_THEORY = SGP/SGP4

EPOCH          = 2026-03-16T06:00:02.999808
MEAN_MOTION    = 15.84357336
ECCENTRICITY   = .00010971
INCLINATION    = 53.1594
RA_OF_ASC_NODE = 161.7454
ARG_OF_PERICENTER = 89.1023
MEAN_ANOMALY   = 226.2987

EPHEMERIS_TYPE = 0
CLASSIFICATION_TYPE = U
NORAD_CAT_ID   = 68088
ELEMENT_SET_NO = 999
REV_AT_EPOCH   = 310
BSTAR          = -.78415189E-2
MEAN_MOTION_DOT = -.1597304E-1
MEAN_MOTION_DDOT = 0

CCSDS_OMM_VERS = 2.0
CREATION_DATE  = 
ORIGINATOR     = 

OBJECT_NAME    = STARLINK-37004
OBJECT_ID      = 2026-042W
CENTER_NAME    = EARTH
REF_FRAME      = TEME
TIME_SYSTEM    = UTC
MEAN_ELEMENT_THEORY = SGP/SGP4

EPOCH          = 2026-03-16T06:00:02.999808
MEAN_MOTION    = 15.84458432
ECCENTRICITY   = .00010184
INCLINATION    = 53.1596
RA_OF_ASC_NODE = 161.7379
ARG_OF_PERICENTER = 87.4223
MEAN_ANOMALY   = 231.8765

EPHEMERIS_TYPE = 0
CLASSIFICATION_TYPE = U
NORAD_CAT_ID   = 68089
ELEMENT_SET_NO = 999
REV_AT_EPOCH   = 310
BSTAR          = -.7782743E-2
MEAN_MOTION_DOT = -.159358E-1
MEAN_MOTION_DDOT = 0

CCSDS_OMM_VERS = 2.0
CREATION_DATE  = 
ORIGINATOR     = 

OBJECT_NAME    = STARLINK-36320
OBJECT_ID      = 2026-042X
CENTER_NAME    = EARTH
REF_FRAME      = TEME
TIME_SYSTEM    = UTC
MEAN_ELEMENT_THEORY = SGP/SGP4

EPOCH          = 2026-03-16T06:00:02.999808
MEAN_MOTION    = 15.84593947
ECCENTRICITY   = .00008676
INCLINATION    = 53.1596
RA_OF_ASC_NODE = 161.7208
ARG_OF_PERICENTER = 79.8216
MEAN_ANOMALY   = 247.5722

EPHEMERIS_TYPE = 0
CLASSIFICATION_TYPE = U
NORAD_CAT_ID   = 68090
ELEMENT_SET_NO = 999
REV_AT_EPOCH   = 309
BSTAR          = -.78162057E-2
MEAN_MOTION_DOT = -.1608644E-1
MEAN_MOTION_DDOT = 0

CCSDS_OMM_VERS = 2.0
CREATION_DATE  = 
ORIGINATOR     = 

OBJECT_NAME    = STARLINK-36324
OBJECT_ID      = 2026-042Y
CENTER_NAME    = EARTH
REF_FRAME      = TEME
TIME_SYSTEM    = UTC
MEAN_ELEMENT_THEORY = SGP/SGP4

EPOCH          = 2026-03-16T06:00:02.999808
MEAN_MOTION    = 15.84508611
ECCENTRICITY   = .00009738
INCLINATION    = 53.1594
RA_OF_ASC_NODE = 161.7289
ARG_OF_PERICENTER = 78.4995
MEAN_ANOMALY   = 244.9236

EPHEMERIS_TYPE = 0
CLASSIFICATION_TYPE = U
NORAD_CAT_ID   = 68091
ELEMENT_SET_NO = 999
REV_AT_EPOCH   = 309
BSTAR          = -.78093516E-2
MEAN_MOTION_DOT = -.1601701E-1
MEAN_MOTION_DDOT = 0

CCSDS_OMM_VERS = 2.0
CREATION_DATE  = 
ORIGINATOR     = 

OBJECT_NAME    = STARLINK-36896
OBJECT_ID      = 2026-042Z
CENTER_NAME    = EARTH
REF_FRAME      = TEME
TIME_SYSTEM    = UTC
MEAN_ELEMENT_THEORY = SGP/SGP4

EPOCH          = 2026-03-16T06:00:02.999808
MEAN_MOTION    = 15.84697762
ECCENTRICITY   = .0000732
INCLINATION    = 53.1593
RA_OF_ASC_NODE = 161.7125
ARG_OF_PERICENTER = 81.9768
MEAN_ANOMALY   = 249.2911

EPHEMERIS_TYPE = 0
CLASSIFICATION_TYPE = U
NORAD_CAT_ID   = 68092
ELEMENT_SET_NO = 999
REV_AT_EPOCH   = 310
BSTAR          = -.77756556E-2
MEAN_MOTION_DOT = -.1608314E-1
MEAN_MOTION_DDOT = 0

CCSDS_OMM_VERS = 2.0
CREATION_DATE  = 
ORIGINATOR     = 

OBJECT_NAME    = STARLINK-36251
OBJECT_ID      = 2026-042AA
CENTER_NAME    = EARTH
REF_FRAME      = TEME
TIME_SYSTEM    = UTC
MEAN_ELEMENT_THEORY = SGP/SGP4

EPOCH          = 2026-03-16T06:00:02.999808
MEAN_MOTION    = 15.84885565
ECCENTRICITY   = .0000778
INCLINATION    = 53.1594
RA_OF_ASC_NODE = 161.6964
ARG_OF_PERICENTER = 90.5667
MEAN_ANOMALY   = 248.5336

EPHEMERIS_TYPE = 0
CLASSIFICATION_TYPE = U
NORAD_CAT_ID   = 68093
ELEMENT_SET_NO = 999
REV_AT_EPOCH   = 309
BSTAR          = -.77408001E-2
MEAN_MOTION_DOT = -.1614873E-1
MEAN_MOTION_DDOT = 0

CCSDS_OMM_VERS = 2.0
CREATION_DATE  = 
ORIGINATOR     = 

OBJECT_NAME    = STARLINK-36787
OBJECT_ID      = 2026-042AB
CENTER_NAME    = EARTH
REF_FRAME      = TEME
TIME_SYSTEM    = UTC
MEAN_ELEMENT_THEORY = SGP/SGP4

EPOCH          = 2026-03-16T06:00:02.999808
MEAN_MOTION    = 15.84795977
ECCENTRICITY   = .00009169
INCLINATION    = 53.1591
RA_OF_ASC_NODE = 161.6770
ARG_OF_PERICENTER = 95.3472
MEAN_ANOMALY   = 252.8109

EPHEMERIS_TYPE = 0
CLASSIFICATION_TYPE = U
NORAD_CAT_ID   = 68094
ELEMENT_SET_NO = 999
REV_AT_EPOCH   = 309
BSTAR          = -.7941187E-2
MEAN_MOTION_DOT = -.1645052E-1
MEAN_MOTION_DDOT = 0

CCSDS_OMM_VERS = 2.0
CREATION_DATE  = 
ORIGINATOR     = 

OBJECT_NAME    = STARLINK-36790
OBJECT_ID      = 2026-042AC
CENTER_NAME    = EARTH
REF_FRAME      = TEME
TIME_SYSTEM    = UTC
MEAN_ELEMENT_THEORY = SGP/SGP4

EPOCH          = 2026-03-16T06:00:02.999808
MEAN_MOTION    = 15.84811503
ECCENTRICITY   = .00010527
INCLINATION    = 53.1592
RA_OF_ASC_NODE = 161.7045
ARG_OF_PERICENTER = 99.5989
MEAN_ANOMALY   = 235.5130

EPHEMERIS_TYPE = 0
CLASSIFICATION_TYPE = U
NORAD_CAT_ID   = 68095
ELEMENT_SET_NO = 999
REV_AT_EPOCH   = 309
BSTAR          = -.77609902E-2
MEAN_MOTION_DOT = -.1613688E-1
MEAN_MOTION_DDOT = 0

CCSDS_OMM_VERS = 2.0
CREATION_DATE  = 
ORIGINATOR     = 

OBJECT_NAME    = STARLINK-36328
OBJECT_ID      = 2026-042AD
CENTER_NAME    = EARTH
REF_FRAME      = TEME
TIME_SYSTEM    = UTC
MEAN_ELEMENT_THEORY = SGP/SGP4

EPOCH          = 2026-03-16T06:00:02.999808
MEAN_MOTION    = 15.84837043
ECCENTRICITY   = .00010818
INCLINATION    = 53.1595
RA_OF_ASC_NODE = 161.6685
ARG_OF_PERICENTER = 84.1194
MEAN_ANOMALY   = 268.1691

EPHEMERIS_TYPE = 0
CLASSIFICATION_TYPE = U
NORAD_CAT_ID   = 68096
ELEMENT_SET_NO = 999
REV_AT_EPOCH   = 309
BSTAR          = -.79439602E-2
MEAN_MOTION_DOT = -.164855E-1
MEAN_MOTION_DDOT = 0

