STARLINK-37068          
1 68085U 26042S   26075.25003472 -.01583164  00000+0 -78504-2 0  9999
2 68085  53.1594 161.7702 0000917  85.6523 217.6850 15.84125466  3101
STARLINK-37067          
1 68086U 26042T   26075.25003472 -.01594338  00000+0 -78897-2 0  9990
2 68086  53.1593 161.7619 0000923  90.6427 216.7868 15.84188814  3109
STARLINK-37062          
1 68087U 26042U   26075.25003472 -.01594655  00000+0 -78533-2 0  9990
2 68087  53.1595 161.7537 0001103  94.2473 217.1157 15.84286994  3107
STARLINK-37059          
1 68088U 26042V   26075.25003472 -.01597304  00000+0 -78415-2 0  9994
2 68088  53.1594 161.7454 0001097  89.1023 226.2987 15.84357336  3102
STARLINK-37004          
1 68089U 26042W   26075.25003472 -.01593580  00000+0 -77827-2 0  9993
2 68089  53.1596 161.7379 0001018  87.4223 231.8765 15.84458432  3102
STARLINK-36320          
1 68090U 26042X   26075.25003472 -.01608644  00000+0 -78162-2 0  9996
2 68090  53.1596 161.7208 0000867  79.8216 247.5722 15.84593947  3099
STARLINK-36324          
1 68091U 26042Y   26075.25003472 -.01601701  00000+0 -78094-2 0  9998
2 68091  53.1594 161.7289 0000973  78.4995 244.9236 15.84508611  3099
STARLINK-36896          
1 68092U 26042Z   26075.25003472 -.01608314  00000+0 -77757-2 0  9991
2 68092  53.1593 161.7125 0000732  81.9768 249.2911 15.84697762  3104
STARLINK-36251          
1 68093U 26042AA  26075.25003472 -.01614873  00000+0 -77408-2 0  9992
2 68093  53.1594 161.6964 0000778  90.5667 248.5336 15.84885565  3091
STARLINK-36787          
1 68094U 26042AB  26075.25003472 -.01645052  00000+0 -79412-2 0  9993
2 68094  53.1591 161.6770 0000916  95.3472 252.8109 15.84795977  3098
STARLINK-36790          
1 68095U 26042AC  26075.25003472 -.01613688  00000+0 -77610-2 0  9992
2 68095  53.1592 161.7045 0001052  99.5989 235.5130 15.84811503  3093
STARLINK-36328          
1 68096U 26042AD  26075.25003472 -.01648550  00000+0 -79440-2 0  9992
2 68096  53.1595 161.6685 0001081  84.1194 268.1691 15.84837043  3097
